IRIDIUM 26              
1 24903U 97043A   25045.77675811  .00000791  00000+0  26061-3 0  9993
2 24903  86.4024 162.0103 0002269  99.8124 260.3330 14.36972422439169
IRIDIUM 22              
1 24907U 97043E   25045.39712773  .00000777  00000+0  26191-3 0  9992
2 24907  86.4029 165.5973 0002078  94.5147 265.6287 14.35804974439159
DUMMY MASS 1            
1 24925U 97048A   25045.93479083  .00000988  00000+0  10785-3 0  9997
2 24925  86.3385 191.7966 0005473 201.4097 158.6899 14.86793833486969
DUMMY MASS 2            
1 24926U 97048B   25045.94392654  .00000956  00000+0  10489-3 0  9993
2 24926  86.3383 193.3757 0005841 217.4745 142.6073 14.86546950486749
IRIDIUM 29              
1 24944U 97051A   25045.95018363  .00000944  00000+0  31678-3 0  9990
2 24944  86.3995 195.1074 0001882  89.2815 270.8598 14.36279110435728
IRIDIUM 33              
1 24946U 97051C   25045.93936565  .00000633  00000+0  21661-3 0  9999
2 24946  86.3912 194.3631 0009750 112.5350 247.6879 14.34762923435210
IRIDIUM 28              
1 24948U 97051E   25045.93310687  .00000840  00000+0  27575-3 0  9992
2 24948  86.4006 192.7024 0002423  99.0217 261.1254 14.37214211436287
IRIDIUM 36              
1 24967U 97056C   25045.91448897  .00000930  00000+0  30489-3 0  9999
2 24967  86.3948 224.3104 0002258  88.1444 272.0012 14.37410763434652
